STARLINK-31977          
1 59892U 24100H   26068.44876486 -.00000381  00000+0 -43521-5 0  9992
2 59892  42.9997 119.5264 0000831 250.3237 109.7525 15.27561329101201
FLOCK 4G-10             
1 62670U 25009BP  26068.70827885  .00013952  00000+0  52624-3 0  9995
2 62670  97.3967 150.5883 0003469 341.4844  18.6269 15.27155944121340
